NUSAT-50 (NANCY ROMAN)  
1 60493U 24149AB  26068.80227738  .00012094  00000+0  42252-3 0  9994
2 60493  97.3817 150.7693 0002523 238.0469 122.0527 15.29713355 86930
STARLINK-36072          
1 66856U 25281J   26068.18350921  .00017809  00000+0  65490-3 0  9991
2 66856  42.9959 346.7232 0000769 265.3751  94.7013 15.27591238 16104
